QZS-1R                  
1 49336U 21096A   24261.51195659 -.00000214  00000+0  00000+0 0  9995
2 49336  36.1327  89.1280 0743632 269.7159 316.8564  1.00290186 10608
